start=new Date('2023-01-15T00:00:00.000Z').valueOf();
sats=[{"MEAN_MOTION_DOT":"0.00001018","OBJECT_NAME":"STARLINK-5406","CENTER_NAME":"EARTH","GP_ID":"222997115","OBJECT_TYPE":"PAYLOAD","COUNTRY_CODE":"US","FILE":"3744672","OBJECT_ID":"2022-177AS","EPOCH":"2023-01-14T14:00:01.000224","ELEMENT_SET_NO":"999","RA_OF_ASC_NODE":"271.2112","BSTAR":"0.00001121100000","APOAPSIS":"356.167","ARG_OF_PERICENTER":"252.0791","REF_FRAME":"TEME","MEAN_ANOMALY":"346.5065","TLE_LINE2":"2 54860  42.9998 271.2112 0001686 252.0791 346.5065 15.71352643  2872","PERIOD":"91.641","LAUNCH_DATE":"2022-12-28","NORAD_CAT_ID":"54860","MEAN_ELEMENT_THEORY":"SGP4","REV_AT_EPOCH":"287","PERIAPSIS":"353.897","MEAN_MOTION":"15.71352643","DECAY_DATE":null,"SITE":"AFETR","INCLINATION":"42.9998","RCS_SIZE":"MEDIUM","SEMIMAJOR_AXIS":"6733.167","ECCENTRICITY":"0.00016860","MEAN_MOTION_DDOT":"0.0000000000000","EPHEMERIS_TYPE":"0","TIME_SYSTEM":"UTC","TLE_LINE1":"1 54860U 22177AS  23014.58334491  .00001018  00000-0  11211-4 0  9999","CLASSIFICATION_TYPE":"U"},{"CENTER_NAME":"EARTH","GP_ID":"222997168","COUNTRY_CODE":"US","OBJECT_TYPE":"PAYLOAD","MEAN_MOTION_DOT":"0.00000327","OBJECT_NAME":"STARLINK-5400","RA_OF_ASC_NODE":"271.2214","BSTAR":"0.00000593830000","APOAPSIS":"356.185","ARG_OF_PERICENTER":"249.5725","REF_FRAME":"TEME","FILE":"3744675","OBJECT_ID":"2022-177AT","EPOCH":"2023-01-14T14:00:01.000224","ELEMENT_SET_NO":"999","LAUNCH_DATE":"2022-12-28","NORAD_CAT_ID":"54861","MEAN_ELEMENT_THEORY":"SGP4","REV_AT_EPOCH":"287","PERIAPSIS":"353.878","DECAY_DATE":null,"MEAN_MOTION":"15.71352950","MEAN_ANOMALY":"344.8449","TLE_LINE2":"2 54861  42.9999 271.2214 0001713 249.5725 344.8449 15.71352950  2874","PERIOD":"91.641","MEAN_MOTION_DDOT":"0.0000000000000","ECCENTRICITY":"0.00017130","EPHEMERIS_TYPE":"0","TIME_SYSTEM":"UTC","TLE_LINE1":"1 54861U 22177AT  23014.58334491  .00000327  00000-0  59383-5 0  9995","CLASSIFICATION_TYPE":"U","SITE":"AFETR","INCLINATION":"42.9999","RCS_SIZE":"MEDIUM","SEMIMAJOR_AXIS":"6733.166"},{"PERIOD":"91.641","TLE_LINE2":"2 54862  42.9999 271.2168 0001631 276.0651 320.1387 15.71352979  2874","MEAN_ANOMALY":"320.1387","NORAD_CAT_ID":"54862","LAUNCH_DATE":"2022-12-28","MEAN_ELEMENT_THEORY":"SGP4","PERIAPSIS":"353.933","REV_AT_EPOCH":"287","DECAY_DATE":null,"MEAN_MOTION":"15.71352979","RCS_SIZE":"MEDIUM","SEMIMAJOR_AXIS":"6733.166","SITE":"AFETR","INCLINATION":"42.9999","CLASSIFICATION_TYPE":"U","TLE_LINE1":"1 54862U 22177AU  23014.58334491  .00000271  00000-0  55165-5 0  9998","MEAN_MOTION_DDOT":"0.0000000000000","ECCENTRICITY":"0.00016310","EPHEMERIS_TYPE":"0","TIME_SYSTEM":"UTC","MEAN_MOTION_DOT":"0.00000271","OBJECT_NAME":"STARLINK-5403","GP_ID":"222997352","OBJECT_TYPE":"PAYLOAD","COUNTRY_CODE":"US","CENTER_NAME":"EARTH","EPOCH":"2023-01-14T14:00:01.000224","ELEMENT_SET_NO":"999","FILE":"3744675","OBJECT_ID":"2022-177AU","APOAPSIS":"356.129","ARG_OF_PERICENTER":"276.0651","REF_FRAME":"TEME","RA_OF_ASC_NODE":"271.2168","BSTAR":"0.00000551650000"},{"LAUNCH_DATE":"2022-12-28","MEAN_ELEMENT_THEORY":"SGP4","NORAD_CAT_ID":"54863","REV_AT_EPOCH":"293","PERIAPSIS":"353.374","DECAY_DATE":null,"MEAN_MOTION":"15.71600839","MEAN_ANOMALY":"196.5057","TLE_LINE2":"2 54863  42.9960 268.6995 0001410 240.7890 196.5057 15.71600839  2936","PERIOD":"91.626","ECCENTRICITY":"0.00014100","MEAN_MOTION_DDOT":"0.0000000000000","EPHEMERIS_TYPE":"0","TIME_SYSTEM":"UTC","CLASSIFICATION_TYPE":"U","TLE_LINE1":"1 54863U 22177AV  23015.00001157  .00082384  00000-0  61905-3 0  9999","SITE":"AFETR","INCLINATION":"42.9960","RCS_SIZE":"LARGE","SEMIMAJOR_AXIS":"6732.458","CENTER_NAME":"EARTH","GP_ID":"223028354","COUNTRY_CODE":"US","OBJECT_TYPE":"PAYLOAD","MEAN_MOTION_DOT":"0.00082384","OBJECT_NAME":"STARLINK-5405","RA_OF_ASC_NODE":"268.6995","BSTAR":"0.00061905000000","APOAPSIS":"355.273","ARG_OF_PERICENTER":"240.7890","REF_FRAME":"TEME","FILE":"3745268","OBJECT_ID":"2022-177AV","ELEMENT_SET_NO":"999","EPOCH":"2023-01-15T00:00:00.999648"},{"MEAN_ANOMALY":"186.4616","TLE_LINE2":"2 54864  42.9998 268.6977 0001576 253.2166 186.4616 15.71355068  2802","PERIOD":"91.641","MEAN_ELEMENT_THEORY":"SGP4","LAUNCH_DATE":"2022-12-28","NORAD_CAT_ID":"54864","REV_AT_EPOCH":"280","PERIAPSIS":"353.964","MEAN_MOTION":"15.71355068","DECAY_DATE":null,"SITE":"AFETR","INCLINATION":"42.9998","RCS_SIZE":"LARGE","SEMIMAJOR_AXIS":"6733.160","MEAN_MOTION_DDOT":"0.0000000000000","ECCENTRICITY":"0.00015760","EPHEMERIS_TYPE":"0","TIME_SYSTEM":"UTC","CLASSIFICATION_TYPE":"U","TLE_LINE1":"1 54864U 22177AW  23015.00001157 -.00003396  00000-0 -22458-4 0  9999","MEAN_MOTION_DOT":"-0.00003396","OBJECT_NAME":"STARLINK-5359","CENTER_NAME":"EARTH","GP_ID":"223025240","OBJECT_TYPE":"PAYLOAD","COUNTRY_CODE":"US","FILE":"3745121","OBJECT_ID":"2022-177AW","EPOCH":"2023-01-15T00:00:00.999648","ELEMENT_SET_NO":"999","RA_OF_ASC_NODE":"268.6977","BSTAR":"-0.00002245800000","APOAPSIS":"356.086","ARG_OF_PERICENTER":"253.2166","REF_FRAME":"TEME"},{"CENTER_NAME":"EARTH","COUNTRY_CODE":"US","OBJECT_TYPE":"PAYLOAD","GP_ID":"222987212","OBJECT_NAME":"STARLINK-5411","MEAN_MOTION_DOT":"-0.00001348","RA_OF_ASC_NODE":"273.2312","BSTAR":"-0.00000683320000","ARG_OF_PERICENTER":"254.8556","REF_FRAME":"TEME","APOAPSIS":"356.160","FILE":"3744169","OBJECT_ID":"2022-177AX","EPOCH":"2023-01-14T06:00:00.999648","ELEMENT_SET_NO":"999","DECAY_DATE":null,"MEAN_MOTION":"15.71354159","LAUNCH_DATE":"2022-12-28","MEAN_ELEMENT_THEORY":"SGP4","NORAD_CAT_ID":"54865","PERIAPSIS":"353.896","REV_AT_EPOCH":"269","TLE_LINE2":"2 54865  43.0000 273.2312 0001681 254.8556 252.8266 15.71354159  2697","MEAN_ANOMALY":"252.8266","PERIOD":"91.641","EPHEMERIS_TYPE":"0","TIME_SYSTEM":"UTC","MEAN_MOTION_DDOT":"0.0000000000000","ECCENTRICITY":"0.00016810","TLE_LINE1":"1 54865U 22177AX  23014.25001157 -.00001348  00000-0 -68332-5 0  9993","CLASSIFICATION_TYPE":"U","INCLINATION":"43.0000","SITE":"AFETR","SEMIMAJOR_AXIS":"6733.163","RCS_SIZE":"MEDIUM"},{"TIME_SYSTEM":"UTC","EPHEMERIS_TYPE":"0","MEAN_MOTION_DDOT":"0.0000000000000","ECCENTRICITY":"0.00016060","CLASSIFICATION_TYPE":"U","TLE_LINE1":"1 54866U 22177AY  23014.91667824 -.00044396  00000-0 -33676-3 0  9997","INCLINATION":"42.9989","SITE":"AFETR","SEMIMAJOR_AXIS":"6733.130","RCS_SIZE":"LARGE","MEAN_MOTION":"15.71365690","DECAY_DATE":null,"REV_AT_EPOCH":"292","PERIAPSIS":"353.914","LAUNCH_DATE":"2022-12-28","NORAD_CAT_ID":"54866","MEAN_ELEMENT_THEORY":"SGP4","MEAN_ANOMALY":"53.6934","TLE_LINE2":"2 54866  42.9989 269.1895 0001606 275.7368  53.6934 15.71365690  2929","PERIOD":"91.640","BSTAR":"-0.00033676000000","RA_OF_ASC_NODE":"269.1895","REF_FRAME":"TEME","ARG_OF_PERICENTER":"275.7368","APOAPSIS":"356.076","OBJECT_ID":"2022-177AY","FILE":"3745098","ELEMENT_SET_NO":"999","EPOCH":"2023-01-14T22:00:00.999936","CENTER_NAME":"EARTH","COUNTRY_CODE":"US","OBJECT_TYPE":"PAYLOAD","GP_ID":"223024402","OBJECT_NAME":"STARLINK-5398","MEAN_MOTION_DOT":"-0.00044396"},{"TIME_SYSTEM":"UTC","EPHEMERIS_TYPE":"0","MEAN_MOTION_DDOT":"0.0000000000000","ECCENTRICITY":"0.00013340","TLE_LINE1":"1 54867U 22177AZ  23014.66667824  .00049528  00000-0  37938-3 0  9995","CLASSIFICATION_TYPE":"U","INCLINATION":"42.9987","SITE":"AFETR","SEMIMAJOR_AXIS":"6733.247","RCS_SIZE":"MEDIUM","DECAY_DATE":null,"MEAN_MOTION":"15.71324684","REV_AT_EPOCH":"275","PERIAPSIS":"354.214","LAUNCH_DATE":"2022-12-28","MEAN_ELEMENT_THEORY":"SGP4","NORAD_CAT_ID":"54867","MEAN_ANOMALY":"85.6838","TLE_LINE2":"2 54867  42.9987 270.7020 0001334 265.4505  85.6838 15.71324684  2750","PERIOD":"91.642","BSTAR":"0.00037938000000","RA_OF_ASC_NODE":"270.7020","REF_FRAME":"TEME","ARG_OF_PERICENTER":"265.4505","APOAPSIS":"356.010","OBJECT_ID":"2022-177AZ","FILE":"3744718","EPOCH":"2023-01-14T16:00:00.999936","ELEMENT_SET_NO":"999","CENTER_NAME":"EARTH","COUNTRY_CODE":"US","OBJECT_TYPE":"PAYLOAD","GP_ID":"222998081","OBJECT_NAME":"STARLINK-5396","MEAN_MOTION_DOT":"0.00049528"},{"INCLINATION":"42.9995","SITE":"AFETR","SEMIMAJOR_AXIS":"6733.213","RCS_SIZE":"LARGE","TIME_SYSTEM":"UTC","EPHEMERIS_TYPE":"0","MEAN_MOTION_DDOT":"0.0000000000000","ECCENTRICITY":"0.00026570","TLE_LINE1":"1 54868U 22177BA  23015.00001157  .00053557  00000-0  40952-3 0  9993","CLASSIFICATION_TYPE":"U","MEAN_ANOMALY":"177.8513","TLE_LINE2":"2 54868  42.9995 268.6838 0002657 264.7404 177.8513 15.71336603  2806","PERIOD":"91.642","DECAY_DATE":null,"MEAN_MOTION":"15.71336603","REV_AT_EPOCH":"280","PERIAPSIS":"353.289","MEAN_ELEMENT_THEORY":"SGP4","LAUNCH_DATE":"2022-12-28","NORAD_CAT_ID":"54868","OBJECT_ID":"2022-177BA","FILE":"3745143","EPOCH":"2023-01-15T00:00:00.999648","ELEMENT_SET_NO":"999","BSTAR":"0.00040952000000","RA_OF_ASC_NODE":"268.6838","REF_FRAME":"TEME","ARG_OF_PERICENTER":"264.7404","APOAPSIS":"356.867","OBJECT_NAME":"STARLINK-5379","MEAN_MOTION_DOT":"0.00053557","CENTER_NAME":"EARTH","COUNTRY_CODE":"US","OBJECT_TYPE":"PAYLOAD","GP_ID":"223025488"},{"RA_OF_ASC_NODE":"268.6900","BSTAR":"0.00050109000000","APOAPSIS":"356.209","ARG_OF_PERICENTER":"259.2117","REF_FRAME":"TEME","FILE":"3745164","OBJECT_ID":"2022-177BB","ELEMENT_SET_NO":"999","EPOCH":"2023-01-15T00:00:00.999648","CENTER_NAME":"EARTH","GP_ID":"223025834","COUNTRY_CODE":"US","OBJECT_TYPE":"PAYLOAD","MEAN_MOTION_DOT":"0.00065687","OBJECT_NAME":"STARLINK-5402","MEAN_MOTION_DDOT":"0.0000000000000","ECCENTRICITY":"0.00016240","EPHEMERIS_TYPE":"0","TIME_SYSTEM":"UTC","CLASSIFICATION_TYPE":"U","TLE_LINE1":"1 54869U 22177BB  23015.00001157  .00065687  00000-0  50109-3 0  9996","SITE":"AFETR","INCLINATION":"42.9987","RCS_SIZE":"LARGE","SEMIMAJOR_AXIS":"6733.251","NORAD_CAT_ID":"54869","LAUNCH_DATE":"2022-12-28","MEAN_ELEMENT_THEORY":"SGP4","PERIAPSIS":"354.022","REV_AT_EPOCH":"280","DECAY_DATE":null,"MEAN_MOTION":"15.71323399","MEAN_ANOMALY":"181.6186","TLE_LINE2":"2 54869  42.9987 268.6900 0001624 259.2117 181.6186 15.71323399  2808","PERIOD":"91.642"}];
